{
  "type": "FeatureCollection",
  "features": [
    {
      "type": "Feature",
      "properties": {
        "norad_id": 30342,
        "name": "FENGYUN 1C DEB",
        "group": "fengyun-1c-debris",
        "lat": -61.83704382369969,
        "lon": -174.76345389762972,
        "alt_km": 1093.2216240147363,
        "timestamp": "2025-12-12T03:50:52.692865+00:00",
        "meta_object_name": "FENGYUN 1C DEB",
        "meta_object_id": "1999-025ABD",
        "meta_epoch": "2025-12-11T11:03:49.465152",
        "meta_mean_motion": 13.80041194,
        "meta_eccentricity": 0.01682492,
        "meta_inclination": 100.1955,
        "meta_ra_of_asc_node": 164.8415,
        "meta_arg_of_pericenter": 125.913,
        "meta_mean_anomaly": 297.6292,
        "meta_ephemeris_type": 0,
        "meta_classification_type": "U",
        "meta_norad_cat_id": 30342,
        "meta_element_set_no": 999,
        "meta_rev_at_epoch": 94871,
        "meta_bstar": 0.0009763999,
        "meta_mean_motion_dot": 1.079e-05,
        "meta_mean_motion_ddot": 0,
        "tle_line1": "1 30342U 99025ABD 25345.46098918  .00001079  00000+0  97640-3 0  9996",
        "tle_line2": "2 30342 100.1955 164.8415 0168249 125.9130 297.6292 13.80041194948712"
      },
      "geometry": {
        "type": "Point",
        "coordinates": [
          -174.76345389762972,
          -61.83704382369969
        ]
      }
    },
    {
      "type": "Feature",
      "properties": {
        "norad_id": 30344,
        "name": "FENGYUN 1C DEB",
        "group": "fengyun-1c-debris",
        "lat": -53.3235489637401,
        "lon": -123.84345013735278,
        "alt_km": 729.0272572047998,
        "timestamp": "2025-12-12T03:50:52.692874+00:00",
        "meta_object_name": "FENGYUN 1C DEB",
        "meta_object_id": "1999-025ABF",
        "meta_epoch": "2025-12-11T05:23:19.301280",
        "meta_mean_motion": 14.5170459,
        "meta_eccentricity": 0.00079441,
        "meta_inclination": 98.8194,
        "meta_ra_of_asc_node": 67.2077,
        "meta_arg_of_pericenter": 125.409,
        "meta_mean_anomaly": 260.8312,
        "meta_ephemeris_type": 0,
        "meta_classification_type": "U",
        "meta_norad_cat_id": 30344,
        "meta_element_set_no": 999,
        "meta_rev_at_epoch": 98055,
        "meta_bstar": 0.0038638702,
        "meta_mean_motion_dot": 0.00015503,
        "meta_mean_motion_ddot": 0,
        "tle_line1": "1 30344U 99025ABF 25345.22452895  .00015503  00000+0  38639-2 0  9999",
        "tle_line2": "2 30344  98.8194  67.2077 0007944 125.4090 260.8312 14.51704590980554"
      },
      "geometry": {
        "type": "Point",
        "coordinates": [
          -123.84345013735278,
          -53.3235489637401
        ]
      }
    },
    {
      "type": "Feature",
      "properties": {
        "norad_id": 30345,
        "name": "FENGYUN 1C DEB",
        "group": "fengyun-1c-debris",
        "lat": -57.709810183673966,
        "lon": 59.89517450709615,
        "alt_km": 753.3858143378793,
        "timestamp": "2025-12-12T03:50:52.692884+00:00",
        "meta_object_name": "FENGYUN 1C DEB",
        "meta_object_id": "1999-025ABG",
        "meta_epoch": "2025-12-11T14:47:40.695072",
        "meta_mean_motion": 14.41637247,
        "meta_eccentricity": 0.00172715,
        "meta_inclination": 98.9202,
        "meta_ra_of_asc_node": 44.9365,
        "meta_arg_of_pericenter": 245.8768,
        "meta_mean_anomaly": 114.0613,
        "meta_ephemeris_type": 0,
        "meta_classification_type": "U",
        "meta_norad_cat_id": 30345,
        "meta_element_set_no": 999,
        "meta_rev_at_epoch": 97757,
        "meta_bstar": 0.0032293693,
        "meta_mean_motion_dot": 0.00010502,
        "meta_mean_motion_ddot": 0,
        "tle_line1": "1 30345U 99025ABG 25345.61644323  .00010502  00000+0  32294-2 0  9997",
        "tle_line2": "2 30345  98.9202  44.9365 0017271 245.8768 114.0613 14.41637247977576"
      },
      "geometry": {
        "type": "Point",
        "coordinates": [
          59.89517450709615,
          -57.709810183673966
        ]
      }
    },
    {
      "type": "Feature",
      "properties": {
        "norad_id": 30346,
        "name": "FENGYUN 1C DEB",
        "group": "fengyun-1c-debris",
        "lat": 28.89476980180877,
        "lon": 77.94470694675395,
        "alt_km": 737.7461613056066,
        "timestamp": "2025-12-12T03:50:52.692894+00:00",
        "meta_object_name": "FENGYUN 1C DEB",
        "meta_object_id": "1999-025ABH",
        "meta_epoch": "2025-12-11T06:13:55.934688",
        "meta_mean_motion": 14.33870677,
        "meta_eccentricity": 0.00554519,
        "meta_inclination": 98.8079,
        "meta_ra_of_asc_node": 81.9369,
        "meta_arg_of_pericenter": 28.4555,
        "meta_mean_anomaly": 34.3612,
        "meta_ephemeris_type": 0,
        "meta_classification_type": "U",
        "meta_norad_cat_id": 30346,
        "meta_element_set_no": 999,
        "meta_rev_at_epoch": 97392,
        "meta_bstar": 0.0036273238,
        "meta_mean_motion_dot": 0.00010245,
        "meta_mean_motion_ddot": 0,
        "tle_line1": "1 30346U 99025ABH 25345.25967517  .00010245  00000+0  36273-2 0  9996",
        "tle_line2": "2 30346  98.8079  81.9369 0055451  28.4555  34.3612 14.33870677973929"
      },
      "geometry": {
        "type": "Point",
        "coordinates": [
          77.94470694675395,
          28.89476980180877
        ]
      }
    },
    {
      "type": "Feature",
      "properties": {
        "norad_id": 30347,
        "name": "FENGYUN 1C DEB",
        "group": "fengyun-1c-debris",
        "lat": 31.669501363377602,
        "lon": -4.693580135162732,
        "alt_km": 957.772641635228,
        "timestamp": "2025-12-12T03:50:52.692904+00:00",
        "meta_object_name": "FENGYUN 1C DEB",
        "meta_object_id": "1999-025ABJ",
        "meta_epoch": "2025-12-11T11:45:54.499104",
        "meta_mean_motion": 13.92768024,
        "meta_eccentricity": 0.01506445,
        "meta_inclination": 98.3767,
        "meta_ra_of_asc_node": 169.4848,
        "meta_arg_of_pericenter": 37.1933,
        "meta_mean_anomaly": 350.9756,
        "meta_ephemeris_type": 0,
        "meta_classification_type": "U",
        "meta_norad_cat_id": 30347,
        "meta_element_set_no": 999,
        "meta_rev_at_epoch": 95943,
        "meta_bstar": 0.00017060491,
        "meta_mean_motion_dot": 2.05e-06,
        "meta_mean_motion_ddot": 0,
        "tle_line1": "1 30347U 99025ABJ 25345.49021411  .00000205  00000+0  17060-3 0  9996",
        "tle_line2": "2 30347  98.3767 169.4848 0150644  37.1933 350.9756 13.92768024959432"
      },
      "geometry": {
        "type": "Point",
        "coordinates": [
          -4.693580135162732,
          31.669501363377602
        ]
      }
    },
    {
      "type": "Feature",
      "properties": {
        "norad_id": 30348,
        "name": "FENGYUN 1C DEB",
        "group": "fengyun-1c-debris",
        "lat": -39.882860269415794,
        "lon": 88.39116524788845,
        "alt_km": 774.9471380683553,
        "timestamp": "2025-12-12T03:50:52.692914+00:00",
        "meta_object_name": "FENGYUN 1C DEB",
        "meta_object_id": "1999-025ABK",
        "meta_epoch": "2025-12-10T05:19:14.802240",
        "meta_mean_motion": 14.35055625,
        "meta_eccentricity": 0.0017283,
        "meta_inclination": 98.8627,
        "meta_ra_of_asc_node": 78.9102,
        "meta_arg_of_pericenter": 24.8496,
        "meta_mean_anomaly": 5.1669,
        "meta_ephemeris_type": 0,
        "meta_classification_type": "U",
        "meta_norad_cat_id": 30348,
        "meta_element_set_no": 999,
        "meta_rev_at_epoch": 97498,
        "meta_bstar": 0.0030188,
        "meta_mean_motion_dot": 8.585e-05,
        "meta_mean_motion_ddot": 0,
        "tle_line1": "1 30348U 99025ABK 25344.22169910  .00008585  00000+0  30188-2 0  9998",
        "tle_line2": "2 30348  98.8627  78.9102 0017283  24.8496   5.1669 14.35055625974981"
      },
      "geometry": {
        "type": "Point",
        "coordinates": [
          88.39116524788845,
          -39.882860269415794
        ]
      }
    },
    {
      "type": "Feature",
      "properties": {
        "norad_id": 30349,
        "name": "FENGYUN 1C DEB",
        "group": "fengyun-1c-debris",
        "lat": -13.423427777266209,
        "lon": -49.304249231710884,
        "alt_km": 802.5534736500967,
        "timestamp": "2025-12-12T03:50:52.692925+00:00",
        "meta_object_name": "FENGYUN 1C DEB",
        "meta_object_id": "1999-025ABL",
        "meta_epoch": "2025-12-11T11:27:17.441280",
        "meta_mean_motion": 14.11093479,
        "meta_eccentricity": 0.00893121,
        "meta_inclination": 98.5851,
        "meta_ra_of_asc_node": 307.9765,
        "meta_arg_of_pericenter": 15.8108,
        "meta_mean_anomaly": 103.2937,
        "meta_ephemeris_type": 0,
        "meta_classification_type": "U",
        "meta_norad_cat_id": 30349,
        "meta_element_set_no": 999,
        "meta_rev_at_epoch": 96213,
        "meta_bstar": 0.0039469695,
        "meta_mean_motion_dot": 7.339e-05,
        "meta_mean_motion_ddot": 0,
        "tle_line1": "1 30349U 99025ABL 25345.47728520  .00007339  00000+0  39470-2 0  9994",
        "tle_line2": "2 30349  98.5851 307.9765 0089312  15.8108 103.2937 14.11093479962135"
      },
      "geometry": {
        "type": "Point",
        "coordinates": [
          -49.304249231710884,
          -13.423427777266209
        ]
      }
    }
  ]
}